STARLINK-11201 [DTC]    
1 60113U 24118A   24206.60346955  .00062803  00000+0  38393-3 0  9996
2 60113  53.1516 267.0907 0001242 128.4772 231.6361 15.76784797  4811
STARLINK-11198 [DTC]    
1 60114U 24118B   24206.60136612  .00042484  00000+0  26238-3 0  9992
2 60114  53.1518 267.0764 0001322  67.3786 292.7374 15.76719108  4816
STARLINK-11112 [DTC]    
1 60115U 24118C   24206.40814708  .00004901  00000+0  33916-4 0  9994
2 60115  53.1522 268.0034 0001113  96.1268 263.9880 15.76733324  4780
STARLINK-11210 [DTC]    
1 60116U 24118D   24206.40326713  .00013413  00000+0  85943-4 0  9994
2 60116  53.1535 267.9696 0001227  83.7091 276.4069 15.76694665  4781
STARLINK-11203 [DTC]    
1 60117U 24118E   24206.39838634  .00155530  00000+0  93631-3 0  9992
2 60117  53.1544 267.9453 0000989  27.7597 332.3476 15.76744923  4783
STARLINK-11177 [DTC]    
1 60118U 24118F   24206.39349832  .00137002  00000+0  82575-3 0  9999
2 60118  53.1531 267.9064 0001160  58.8622 301.2512 15.76780374  4780
STARLINK-11127 [DTC]    
1 60119U 24118G   24206.38860957  .00083808  00000+0  51040-3 0  9992
2 60119  53.1517 267.8721 0001178  58.1367 301.9768 15.76756046  4781
STARLINK-11164 [DTC]    
1 60120U 24118H   24206.57387259  .00059234  00000+0  36243-3 0  9998
2 60120  53.1517 266.8932 0001581  52.1558 307.9605 15.76788069  4810
STARLINK-11119 [DTC]    
1 60121U 24118J   24206.56411479  .00178139  00000+0  10671-2 0  9992
2 60121  53.1533 266.8356 0001608  53.8580 306.2589 15.76784649  4815
STARLINK-11157 [DTC]    
1 60122U 24118K   24206.50562144  .00180862  00000+0  10838-2 0  9994
2 60122  53.1527 267.1801 0002058 135.4443 224.6744 15.76767419  4804
STARLINK-11162 [DTC]    
1 60123U 24118L   24204.21394487  .02106752  00000+0  10746-1 0  9999
2 60123  53.1553 278.4844 0005689 186.9835 173.1108 15.77877991  4445
STARLINK-11161 [DTC]    
1 60124U 24118M   24204.71610833  .00099861  00000+0  60050-3 0  9996
2 60124  53.1578 275.9257 0007420 177.0505 183.0561 15.76938460  4523
STARLINK-11160 [DTC]    
1 60125U 24118N   24206.42271143  .00094723  00000+0  57576-3 0  9995
2 60125  53.1507 267.3679 0001702  26.2889 333.8218 15.76749871  4795
STARLINK-31846          
1 60126U 24118P   24206.58335648  .00043853  00000+0  11005-2 0  9998
2 60126  53.1594 269.6878 0001428 101.2065 339.8113 15.39606158  5962
STARLINK-31840          
1 60127U 24118Q   24206.39225485 -.00001836  00000+0 -35934-4 0  9991
2 60127  53.1583 270.7854 0001238  81.4279 278.6866 15.39621617  4740
STARLINK-31813          
1 60128U 24118R   24206.38294348  .00015805  00000+0  40362-3 0  9994
2 60128  53.1582 270.7270 0000662  87.6576 272.4505 15.39669604  4740
STARLINK-31845          
1 60129U 24118S   24206.54797007 -.00002336  00000+0 -33958-4 0  9994
2 60129  53.1592 269.6188 0001366 100.5380 259.5783 15.49304744  4776
STARLINK-31838          
1 60130U 24118T   24206.54811196 -.00792614  00000+0 -16934-1 0  9999
2 60130  53.1576 269.6241 0002121  75.5826 284.5418 15.46806745  4774
STARLINK-31785          
1 60131U 24118U   24206.50001157 -.00075193  00000+0 -18862-2 0  9993
2 60131  53.1587 269.9769 0001626  77.5817 312.7666 15.39654279  5894
STARLINK-31792          
1 60132U 24118V   24206.58335648 -.01694432  00000+0 -26024-1 0  9999
2 60132  53.1597 266.7569 0001292  66.4165  32.6195 15.56701526  5893
GOES 19                 
1 60133U 24119A   24206.56202122 -.00000183  00000+0  00000+0 0  9995
2 60133   0.0969 250.7472 0003718 197.8616 326.9024  1.00272426    14
FALCON HEAVY R/B        
1 60134U 24119B   24205.85967801 -.00000086  00000+0  00000+0 0  9991
2 60134   4.3866  94.3718 3014250 181.7699 176.6764  1.51715634   438
STARLINK-32043          
1 60135U 24120A   24206.58335648 -.01615446  00000+0 -29080-1 0  9998
2 60135  53.1606 205.2775 0001026  77.2618 220.9818 15.52257521  5343
STARLINK-32112          
1 60136U 24120B   24206.58335648 -.01614532  00000+0 -29064-1 0  9996
2 60136  53.1604 205.2733 0000884  74.6235 225.7659 15.52256513  5552
STARLINK-32050          
1 60137U 24120C   24206.58335648 -.01613044  00000+0 -29036-1 0  9993
2 60137  53.1605 205.2690 0000780  72.5842 229.9499 15.52255677  5178
STARLINK-32025          
1 60138U 24120D   24206.58335648 -.01614564  00000+0 -29064-1 0  9993
2 60138  53.1605 205.2605 0000946  74.4284 232.3949 15.52256627  5297
STARLINK-31867          
1 60139U 24120E   24206.58335648 -.01614053  00000+0 -29055-1 0  9997
2 60139  53.1605 205.2652 0000843  73.9377 230.7407 15.52256298  5344
STARLINK-31694          
1 60140U 24120F   24206.58335648 -.01612316  00000+0 -29023-1 0  9994
2 60140  53.1606 205.2558 0000637  76.4447 232.5230 15.52255322  5553
STARLINK-32036          
1 60141U 24120G   24206.58335648 -.01612205  00000+0 -29020-1 0  9999
2 60141  53.1605 205.2514 0000755  73.9639 237.1486 15.52255141  5554
STARLINK-32031          
1 60142U 24120H   24206.58335648 -.01611936  00000+0 -29015-1 0  9994
2 60142  53.1605 205.2469 0000725  73.1635 240.0936 15.52255012  5559
STARLINK-32027          
1 60143U 24120J   24206.58335648 -.00929881  00000+0 -10596-1 0  9999
2 60143  53.1558 204.5080 0000792  64.0376 247.0525 15.64110772  5550
STARLINK-32033          
1 60144U 24120K   24206.58335648 -.01612125  00000+0 -29018-1 0  9990
2 60144  53.1604 205.2376 0000802  73.8787 243.6677 15.52255144  5342
STARLINK-32029          
1 60145U 24120L   24206.58335648 -.01614862  00000+0 -29069-1 0  9997
2 60145  53.1604 205.2324 0000974  73.5869 246.1036 15.52257295  5407
STARLINK-32127          
1 60146U 24120M   24206.58335648 -.01612517  00000+0 -29025-1 0  9995
2 60146  53.1604 205.2271 0000810  70.5650 251.2700 15.52255881  5340
STARLINK-32019          
1 60147U 24120N   24206.58335648 -.01615212  00000+0 -29075-1 0  9996
2 60147  53.1603 205.2222 0001016  73.3463 250.6319 15.52257902  5400
STARLINK-32021          
1 60148U 24120P   24206.58335648 -.01610723  00000+0 -28991-1 0  9995
2 60148  53.1604 205.2190 0000762  73.2511 252.8740 15.52254483  5555
STARLINK-32022          
1 60149U 24120Q   24206.58335648 -.01614074  00000+0 -29053-1 0  9999
2 60149  53.1604 205.2142 0001039  79.1018 249.1661 15.52257006  5553
STARLINK-32014          
1 60150U 24120R   24206.58335648 -.01613681  00000+0 -29046-1 0  9996
2 60150  53.1604 205.2108 0000989  73.9806 256.4330 15.52256592  5404
STARLINK-32004          
1 60151U 24120S   24206.58335648 -.01614292  00000+0 -29057-1 0  9998
2 60151  53.1600 205.2004 0001024  72.3881 262.3131 15.52257453  5551
STARLINK-32147          
1 60152U 24120T   24206.58335648 -.01610591  00000+0 -28988-1 0  9999
2 60152  53.1603 205.2060 0000789  69.5584 262.9999 15.52254617  5403
STARLINK-32131          
1 60153U 24120U   24206.58335648 -.01608598  00000+0 -28950-1 0  9993
2 60153  53.1603 205.1924 0000730  70.5933 268.3993 15.52253339  5558
STARLINK-32145          
1 60154U 24120V   24206.58335648 -.01614575  00000+0 -29062-1 0  9991
2 60154  53.1605 205.1976 0001121  75.2033 261.6425 15.52257291  5441
STARLINK-32137          
1 60155U 24120W   24206.58335648 -.01613324  00000+0 -29038-1 0  9996
2 60155  53.1604 205.1890 0001097  74.5648 266.5703 15.52256531  5407
STARLINK-32048          
1 60156U 24120X   24206.58335648 -.01614056  00000+0 -29052-1 0  9996
2 60156  53.1599 205.1807 0001037  69.5076 273.7716 15.52257616  5401
STARLINK-32129          
1 60157U 24120Y   24206.58335648 -.01608154  00000+0 -28941-1 0  9995
2 60157  53.1602 205.1796 0000790  72.0851 273.3414 15.52252993  5559
ZHONGXING-3A            
1 60179U 24122A   24206.54061763 -.00000315  00000+0  00000+0 0  9998
2 60179   0.0377 218.8243 0001313  52.7519 327.3491  1.00272256   360
CZ-7A R/B               
1 60180U 24122B   24205.89077810  .00298207  49311-6  24789-2 0  9993
2 60180  15.5613 107.1834 7114489 199.4745 105.6812  2.55202130   615
ILLUMA-T                
1 60181U 98067WR  24206.26724302  .00026593  00000+0  45491-3 0  9996
2 60181  51.6388 131.5287 0011127 111.4452 248.7725 15.51006189  3820
ALOS-4 (DAICHI-4)       
1 60182U 24123A   24206.59816590  .00004121  00000+0  55861-3 0  9991
2 60182  97.9219 302.7258 0001554 113.1022 247.0353 14.79451618  3472
STARLINK-11168 [DTC]    
1 60183U 24124A   24206.58844223  .00038282  00000+0  23652-3 0  9994
2 60183  53.1585 206.2869 0001673  61.9172 298.2018 15.76759040  4551
STARLINK-11187 [DTC]    
1 60184U 24124B   24206.45678200  .00170787  00000+0  10234-2 0  9999
2 60184  53.1585 206.8870 0001097 123.1390 236.9736 15.76800698  3341
STARLINK-11180 [DTC]    
1 60185U 24124C   24206.57868855 -.00153518  00000+0 -95815-3 0  9994
2 60185  53.1586 206.2220 0001504  73.1346 286.9840 15.76557791  3360
STARLINK-11197 [DTC]    
1 60186U 24124D   24206.57380982 -.00095396  00000+0 -58956-3 0  9999
2 60186  53.1579 206.1914 0001840  82.2773 277.8457 15.76566669  3367
STARLINK-11194 [DTC]    
1 60187U 24124E   24206.56891645 -.00010219  00000+0 -58642-4 0  9996
2 60187  53.1580 206.1573 0001621 108.7679 251.3517 15.76676407  3363
STARLINK-11189 [DTC]    
1 60188U 24124F   24206.56399665  .00248487  00000+0  14650-2 0  9999
2 60188  53.1580 206.1246 0000710 162.7118 197.3927 15.76932573  3360
STARLINK-11183 [DTC]    
1 60189U 24124G   24206.49575417  .00063187  00000+0  38648-3 0  9999
2 60189  53.1580 206.4067 0001323  97.8824 262.2347 15.76770686  3350
STARLINK-11179 [DTC]    
1 60190U 24124H   24206.55424972  .00349220  00000+0  20352-2 0  9994
2 60190  53.1581 206.0578 0001494  66.9734 293.1445 15.76906829  4333
STARLINK-11175 [DTC]    
1 60191U 24124J   24206.48597107  .00137312  00000+0  82616-3 0  9997
2 60191  53.1579 206.3411 0002142  98.5464 261.5799 15.76818195  3352
STARLINK-11173 [DTC]    
1 60192U 24124K   24206.54437824  .00059483  00000+0  36154-3 0  9992
2 60192  53.1583 205.9927 0000628 108.7672 251.3417 15.76937855  4548
STARLINK-11172 [DTC]    
1 60193U 24124L   24206.53958412  .00018646  00000+0  11742-3 0  9995
2 60193  53.1587 205.9599 0001679 170.7065 189.3987 15.76777776  4489
